OBJECT_NAME,OBJECT_ID,EPOCH,MEAN_MOTION,ECCENTRICITY,INCLINATION,RA_OF_ASC_NODE,ARG_OF_PERICENTER,MEAN_ANOMALY,EPHEMERIS_TYPE,CLASSIFICATION_TYPE,NORAD_CAT_ID,ELEMENT_SET_NO,REV_AT_EPOCH,BSTAR,MEAN_MOTION_DOT,MEAN_MOTION_DDOT
TIANMU-1 21,2023-208C,2026-07-07T20:15:05.776704,15.35458978,.0006053,97.4517,308.6832,233.1966,126.8723,0,U,58662,999,14073,.18736E-3,.6375E-4,0
TIANMU-1 22,2023-208D,2026-07-07T20:29:59.947584,15.31356904,.0002296,97.4511,305.1839,257.1243,102.9741,0,U,58663,999,14049,.17559E-3,.5239E-4,0
TIANMU-1 15,2024-004A,2026-07-07T20:56:58.895232,15.26863172,.000568,97.4675,15.0637,260.7143,99.3453,0,U,58700,999,13893,.14317E-3,.3704E-4,0
TIANMU-1 16,2024-004B,2026-07-07T20:42:31.483296,15.26966053,.0004313,97.4622,14.2743,281.1131,78.9622,0,U,58701,999,13893,.14528E-3,.3771E-4,0
TIANMU-1 17,2024-004C,2026-07-07T20:21:36.319392,15.26964430,.0003886,97.4649,14.7523,288.9459,71.1358,0,U,58702,999,13892,.15392E-3,.4E-4,0
TIANMU-1 18,2024-004D,2026-07-07T19:46:35.240736,15.26880386,.0003386,97.4667,14.9898,260.9616,99.1240,0,U,58703,999,13892,.13652E-3,.353E-4,0
INSAT-3DS,2024-033A,2026-07-07T17:33:31.661280,1.00272405,.000109,0.0828,95.4405,21.1281,154.5766,0,U,58990,999,4727,0,-.141E-5,0
METEOR-M2 4,2024-039A,2026-07-07T20:44:07.432224,14.22431674,.000817,98.7021,147.9032,106.9876,253.2198,0,U,59051,999,12220,.24754E-4,.11E-6,0
GOES 19,2024-119A,2026-07-07T15:05:50.886816,1.00271713,.0000468,0.0305,235.5803,309.4803,251.8029,0,U,60133,999,716,0,-.233E-5,0
MTG-S1,2025-143A,2026-07-07T17:09:56.297088,1.00272532,.0003284,0.5888,343.2699,262.2372,297.2108,0,U,64723,999,362,0,.7E-7,0
METOP-SGA1,2025-172A,2026-07-07T17:12:55.254816,14.19818396,.0007484,98.6633,248.0109,354.8269,5.2829,0,U,65159,999,4670,.29373E-4,.19E-6,0
FENGYUN 3H,2025-219A,2026-07-07T18:11:39.852096,14.19924034,.00013,98.6771,129.1275,63.7810,296.3500,0,U,65815,999,4030,.36221E-4,.34E-6,0
