TIANMU-1 21             
1 58662U 23208C   26188.84381686  .00006375  00000+0  18736-3 0  9999
2 58662  97.4517 308.6832 0006053 233.1966 126.8723 15.35458978140735
TIANMU-1 22             
1 58663U 23208D   26188.85416606  .00005239  00000+0  17559-3 0  9992
2 58663  97.4511 305.1839 0002296 257.1243 102.9741 15.31356904140498
TIANMU-1 15             
1 58700U 24004A   26188.87290388  .00003704  00000+0  14317-3 0  9992
2 58700  97.4675  15.0637 0005680 260.7143  99.3453 15.26863172138932
TIANMU-1 16             
1 58701U 24004B   26188.86286439  .00003771  00000+0  14528-3 0  9992
2 58701  97.4622  14.2743 0004313 281.1131  78.9622 15.26966053138933
TIANMU-1 17             
1 58702U 24004C   26188.84833703  .00004000  00000+0  15392-3 0  9999
2 58702  97.4649  14.7523 0003886 288.9459  71.1358 15.26964430138923
TIANMU-1 18             
1 58703U 24004D   26188.82401899  .00003530  00000+0  13652-3 0  9999
2 58703  97.4667  14.9898 0003386 260.9616  99.1240 15.26880386138928
INSAT-3DS               
1 58990U 24033A   26188.73161645 -.00000141  00000+0  00000+0 0  9996
2 58990   0.0828  95.4405 0001090  21.1281 154.5766  1.00272405 47278
METEOR-M2 4             
1 59051U 24039A   26188.86397491  .00000011  00000+0  24754-4 0  9997
2 59051  98.7021 147.9032 0008170 106.9876 253.2198 14.22431674122209
GOES 19                 
1 60133U 24119A   26188.62906119 -.00000233  00000+0  00000+0 0  9996
2 60133   0.0305 235.5803 0000468 309.4803 251.8029  1.00271713  7167
MTG-S1                  
1 64723U 25143A   26188.71523492  .00000007  00000+0  00000+0 0  9990
2 64723   0.5888 343.2699 0003284 262.2372 297.2108  1.00272532  3622
METOP-SGA1              
1 65159U 25172A   26188.71730619  .00000019  00000+0  29373-4 0  9999
2 65159  98.6633 248.0109 0007484 354.8269   5.2829 14.19818396 46700
FENGYUN 3H              
1 65815U 25219A   26188.75810014  .00000034  00000+0  36221-4 0  9999
2 65815  98.6771 129.1275 0001300  63.7810 296.3500 14.19924034 40300
